[{"OBJECT_NAME":"STARLINK-31795","OBJECT_ID":"2024-082Q","EPOCH":"2026-03-09T01:23:58.587936","MEAN_MOTION":15.27584811,"ECCENTRICITY":0.00013778,"INCLINATION":43.0025,"RA_OF_ASC_NODE":84.8034,"ARG_OF_PERICENTER":283.436,"MEAN_ANOMALY":76.6339,"EPHEMERIS_TYPE":0,"CLASSIFICATION_TYPE":"U","NORAD_CAT_ID":59645,"ELEMENT_SET_NO":999,"REV_AT_EPOCH":10538,"BSTAR":7.5590841e-5,"MEAN_MOTION_DOT":1.819e-5,"MEAN_MOTION_DDOT":0},{"OBJECT_NAME":"THORAD AGENA D DEB","OBJECT_ID":"1969-082CP","EPOCH":"2026-03-09T22:51:31.947840","MEAN_MOTION":15.31252047,"ECCENTRICITY":0.00108961,"INCLINATION":69.8927,"RA_OF_ASC_NODE":265.8646,"ARG_OF_PERICENTER":335.0972,"MEAN_ANOMALY":24.9676,"EPHEMERIS_TYPE":0,"CLASSIFICATION_TYPE":"U","NORAD_CAT_ID":4133,"ELEMENT_SET_NO":999,"REV_AT_EPOCH":97550,"BSTAR":0.0018489552,"MEAN_MOTION_DOT":0.00056347,"MEAN_MOTION_DDOT":0}]
